{
    "links": {
        "self": "http://www.neowsapp.com/rest/v1/neo/3802019?api_key=iIulBulltgU6a56xZRHN4H3l9WmuAYTsLGpBGhQ2"
    },
    "id": "3802019",
    "neo_reference_id": "3802019",
    "name": "(2018 FL2)",
    "designation": "2018 FL2",
    "nasa_jpl_url": "http://ssd.jpl.nasa.gov/sbdb.cgi?sstr=3802019",
    "absolute_magnitude_h": 25.5,
    "estimated_diameter": {
        "kilometers": {
            "estimated_diameter_min": 0.0211132445,
            "estimated_diameter_max": 0.0472106499
        },
        "meters": {
            "estimated_diameter_min": 21.113244479,
            "estimated_diameter_max": 47.2106498806
        },
        "miles": {
            "estimated_diameter_min": 0.0131191578,
            "estimated_diameter_max": 0.0293353287
        },
        "feet": {
            "estimated_diameter_min": 69.2691770164,
            "estimated_diameter_max": 154.8905885541
        }
    },
    "is_potentially_hazardous_asteroid": false,
    "close_approach_data": [
        {
            "close_approach_date": "1977-01-10",
            "close_approach_date_full": "1977-Jan-10 12:51",
            "epoch_date_close_approach": 221748660000,
            "relative_velocity": {
                "kilometers_per_second": "6.4934072369",
                "kilometers_per_hour": "23376.2660526735",
                "miles_per_hour": "14525.1026481182"
            },
            "miss_distance": {
                "astronomical": "1.7153421416",
                "lunar": "667.2680930824",
                "kilometers": "256611530.704598392",
                "miles": "159451011.3381941296"
            },
            "orbiting_body": "Juptr"
        },
        {
            "close_approach_date": "2018-03-23",
            "close_approach_date_full": "2018-Mar-23 10:01",
            "epoch_date_close_approach": 1521799260000,
            "relative_velocity": {
                "kilometers_per_second": "17.7253183671",
                "kilometers_per_hour": "63811.1461216856",
                "miles_per_hour": "39649.7646554441"
            },
            "miss_distance": {
                "astronomical": "0.0231197079",
                "lunar": "8.9935663731",
                "kilometers": "3458659.056862173",
                "miles": "2149111.0823290674"
            },
            "orbiting_body": "Earth"
        }
    ],
    "orbital_data": {
        "orbit_id": "3",
        "orbit_determination_date": "2018-03-22 06:23:45",
        "first_observation_date": "2018-03-19",
        "last_observation_date": "2018-03-22",
        "data_arc_in_days": 3,
        "observations_used": 30,
        "orbit_uncertainty": "8",
        "minimum_orbit_intersection": ".0106004",
        "jupiter_tisserand_invariant": "3.295",
        "epoch_osculation": "2458197.5",
        "eccentricity": ".6796574740597787",
        "semi_major_axis": "2.228467308004228",
        "inclination": ".6442726429609396",
        "ascending_node_longitude": "251.9627790211922",
        "orbital_period": "1215.088268434004",
        "perihelion_distance": ".7138728464212796",
        "perihelion_argument": "1.561233687415801",
        "aphelion_distance": "3.743061769587177",
        "perihelion_time": "2458244.168712043475",
        "mean_anomaly": "346.1732379678855",
        "mean_motion": ".2962747722549943",
        "equinox": "J2000",
        "orbit_class": {
            "orbit_class_type": "APO",
            "orbit_class_description": "Near-Earth asteroid orbits which cross the Earth’s orbit similar to that of 1862 Apollo",
            "orbit_class_range": "a (semi-major axis) > 1.0 AU; q (perihelion) < 1.017 AU"
        }
    },
    "is_sentry_object": false
}